NOAA 15                 
1 25338U 98030A   24038.56665604  .00000318  00000+0  14995-3 0  9998
2 25338  98.5840  68.3347 0010067 352.4645   7.6383 14.26487771338560
DMSP 5D-3 F16 (USA 172) 
1 28054U 03048A   24038.60540446  .00000290  00000+0  17692-3 0  9998
2 28054  99.0214  43.8508 0008182  65.9129  45.9289 14.13944009 47840
NOAA 18                 
1 28654U 05018A   24038.57793588  .00000328  00000+0  19881-3 0  9990
2 28654  98.8864 116.5879 0015130  75.4106 284.8743 14.13117392964726
METEOSAT-9 (MSG-2)      
1 28912U 05049B   24038.23035661  .00000131  00000+0  00000+0 0  9996
2 28912   7.3841  61.9488 0000713  39.8436 163.7032  1.00267922 66415
EWS-G1 (GOES 13)        
1 29155U 06018A   24038.24355184  .00000090  00000+0  00000+0 0  9993
2 29155   2.2819  86.8629 0088098 249.7399 296.2650  0.99152922 34737
DMSP 5D-3 F17 (USA 191) 
1 29522U 06050A   24038.60227988  .00000322  00000+0  19084-3 0  9991
2 29522  98.7492  51.8499 0009814 358.2287   1.8850 14.14388972890730
FENGYUN 3A              
1 32958U 08026A   24038.59082768  .00000276  00000+0  15260-3 0  9996
2 32958  98.5885 349.6054 0009843  89.4126 270.8178 14.19009356813325
FENGYUN 2E              
1 33463U 08066A   24038.09538435 -.00000200  00000+0  00000+0 0  9994
2 33463   7.2502  61.2723 0001473 303.4232 253.1328  1.00270287 55461
NOAA 19                 
1 33591U 09005A   24038.58205664  .00000322  00000+0  19736-3 0  9993
2 33591  99.0676  92.8975 0012979 302.2586  57.7327 14.12921832772925
GOES 14                 
1 35491U 09033A   24038.56319354 -.00000060  00000+0  00000+0 0  9995
2 35491   0.0583 181.9377 0001224 206.2117 203.2859  1.00272570 53487
DMSP 5D-3 F18 (USA 210) 
1 35951U 09057A   24038.57435152  .00000458  00000+0  26424-3 0  9990
2 35951  98.7990  15.7938 0011090 173.1352 186.9975 14.13988675737928
EWS-G2 (GOES 15)        
1 36411U 10008A   24038.44843557  .00000044  00000+0  00000+0 0  9997
2 36411   0.0464 256.4428 0004189  20.9887  82.6031  1.00267480 51002
COMS 1                  
1 36744U 10032A   24038.52966243 -.00000340  00000+0  00000+0 0  9990
2 36744   2.5956  86.4571 0000809 247.2448 122.2636  1.00269859 42460
FENGYUN 3B              
1 37214U 10059A   24038.63708133  .00000184  00000+0  11984-3 0  9998
2 37214  99.0696  64.8216 0023154 101.2339   8.6688 14.14440339685759
SUOMI NPP               
1 37849U 11061A   24038.57606890  .00000186  00000+0  10905-3 0  9990
2 37849  98.7291 338.5433 0000776  65.1843 294.9414 14.19552988636342
FENGYUN 2F              
1 38049U 12002A   24038.03660543 -.00000351  00000+0  00000+0 0  9991
2 38049   5.2662  74.4314 0001990  24.3467 162.8732  1.00260944 44244
METEOSAT-10 (MSG-3)     
1 38552U 12035B   24038.30326961  .00000001  00000+0  00000+0 0  9990
2 38552   2.6733  59.7808 0001513 288.0888 258.5181  1.00265854 42226
METOP-B                 
1 38771U 12049A   24038.60396372  .00000236  00000+0  12751-3 0  9994
2 38771  98.6473  98.6481 0001571  80.1633 279.9721 14.21466192591004
FENGYUN 3C              
1 39260U 13052A   24038.60109714  .00000200  00000+0  12198-3 0  9991
2 39260  98.4279  45.1422 0010830 349.9334  10.1623 14.16143496536787
METEOR-M 2              
1 40069U 14037A   24038.54895292  .00000297  00000+0  15661-3 0  9994
2 40069  98.4317  38.6659 0006226  28.7171 331.4348 14.20886269497071
HIMAWARI-8              
1 40267U 14060A   24038.55396736 -.00000270  00000+0  00000+0 0  9999
2 40267   0.0504 249.2925 0000533  80.4739 147.4639  1.00269782 34135
FENGYUN 2G              
1 40367U 14090A   24038.45600654 -.00000299  00000+0  00000+0 0  9990
2 40367   3.4536  83.0529 0001662  44.6848 273.0974  1.00278353 33365
METEOSAT-11 (MSG-4)     
1 40732U 15034A   24038.58521611  .00000068  00000+0  00000+0 0  9997
2 40732   1.0751  64.6987 0002512 205.3008  87.0635  1.00273034 31384
ELEKTRO-L 2             
1 41105U 15074A   24038.43329361 -.00000112  00000+0  00000+0 0  9999
2 41105   4.5061  81.0478 0002984 203.5952 353.8767  1.00270186 29876
HIMAWARI-9              
1 41836U 16064A   24038.55396736 -.00000268  00000+0  00000+0 0  9995
2 41836   0.0052  85.7775 0000837 244.0579 147.5227  1.00271880 26675
GOES 16                 
1 41866U 16071A   24038.42128448 -.00000241  00000+0  00000+0 0  9996
2 41866   0.0897 265.9000 0001029  99.4167 208.1614  1.00271123 26479
FENGYUN 4A              
1 41882U 16077A   24038.45705081 -.00000324  00000+0  00000+0 0  9999
2 41882   0.1253  73.3836 0004893 342.0822 350.7311  1.00276819 26294
CYGFM05                 
1 41884U 16078A   24038.45238550  .00010094  00000+0  40644-3 0  9990
2 41884  34.9541  46.8454 0011322  88.6596 271.5415 15.24039490396106
CYGFM04                 
1 41885U 16078B   24038.38432891  .00010236  00000+0  40229-3 0  9994
2 41885  34.9486  32.5241 0009997 117.1358 243.0377 15.24856740396173
CYGFM02                 
1 41886U 16078C   24038.36490562  .00010759  00000+0  42218-3 0  9992
2 41886  34.9570  35.1257 0010849 104.5683 255.6236 15.24895178396253
CYGFM01                 
1 41887U 16078D   24038.41052015  .00010077  00000+0  40891-3 0  9994
2 41887  34.9514  50.6264 0011981  86.7509 273.4575 15.23773349396032
CYGFM08                 
1 41888U 16078E   24038.43896716  .00010643  00000+0  42308-3 0  9995
2 41888  34.9480  39.7717 0011091 104.7379 255.4565 15.24461130396205
CYGFM07                 
1 41890U 16078G   24038.38264698  .00010483  00000+0  41085-3 0  9993
2 41890  34.9511  32.0369 0009518 114.9290 245.2414 15.24951169396181
CYGFM03                 
1 41891U 16078H   24038.41138058  .00010673  00000+0  41910-3 0  9996
2 41891  34.9527  32.9213 0008914 106.8626 253.3066 15.24889726396179
FENGYUN 3D              
1 43010U 17072A   24038.60691653  .00000210  00000+0  12163-3 0  9996
2 43010  98.8942 352.6218 0001792  26.6913 333.4354 14.19279140322890
NOAA 20                 
1 43013U 17073A   24038.54060475  .00000147  00000+0  90320-4 0  9996
2 43013  98.7369 338.4825 0001234 113.9283 246.2022 14.19542448322361
GOES 17                 
1 43226U 18022A   24038.56592507 -.00000084  00000+0  00000+0 0  9997
2 43226   0.0115 121.1812 0001342 174.2533 300.7681  1.00270924 21796
FENGYUN 2H              
1 43491U 18050A   24038.45200351 -.00000123  00000+0  00000+0 0  9997
2 43491   0.8026  88.2655 0001058 345.3389 305.5315  1.00269638 20809
METOP-C                 
1 43689U 18087A   24038.57048838  .00000221  00000+0  12103-3 0  9998
2 43689  98.6993  99.5846 0003613  96.5677 263.5912 14.21507198272568
GEO-KOMPSAT-2A          
1 43823U 18100A   24038.24689093 -.00000337  00000+0  00000+0 0  9990
2 43823   0.0144  90.4424 0001128 320.4093 303.1318  1.00270961 18999
METEOR-M2 2             
1 44387U 19038A   24038.51728514  .00000099  00000+0  62895-4 0  9998
2 44387  98.8102   7.3462 0001422  25.9511 334.1739 14.23849077238794
ARKTIKA-M 1             
1 47719U 21016A   24032.66912720  .00000188  00000+0  00000+0 0  9997
2 47719  63.1417 167.2180 6903684 269.0335  18.1225  2.00601353 21407
FENGYUN 3E              
1 49008U 21062A   24038.61636084  .00000092  00000+0  64161-4 0  9995
2 49008  98.7307  41.6593 0002477  64.9779 295.1654 14.19727246134460
GOES 18                 
1 51850U 22021A   24038.53451444  .00000103  00000+0  00000+0 0  9995
2 51850   0.0053 330.0179 0000078   5.7252 216.8069  1.00270873  7151
NOAA 21 (JPSS-2)        
1 54234U 22150A   24038.55694006  .00000198  00000+0  11485-3 0  9999
2 54234  98.7404 338.0650 0001426  96.0456 264.0882 14.19571208 64446
METEOSAT-12 (MTG-I1)    
1 54743U 22170C   24038.39875795 -.00000001  00000+0  00000+0 0  9995
2 54743   0.3872   1.6299 0000068 173.4783 105.0433  1.00270058  4349
TIANMU-1 03             
1 55973U 23039A   24038.54310651  .00012004  00000+0  50973-3 0  9991
2 55973  97.4498 189.7908 0012369 203.4153 156.6522 15.23155522 48957
TIANMU-1 04             
1 55974U 23039B   24038.52487157  .00011439  00000+0  48667-3 0  9994
2 55974  97.4417 189.4744 0009399 201.2998 158.7848 15.23133390 48948
TIANMU-1 05             
1 55975U 23039C   24038.57618498  .00011888  00000+0  50588-3 0  9997
2 55975  97.4466 189.7635 0005616 190.9548 169.1568 15.23141468 48948
TIANMU-1 06             
1 55976U 23039D   24038.56044202  .00012179  00000+0  51826-3 0  9993
2 55976  97.4480 189.8398 0005058 192.0059 168.1058 15.23138117 48942
METEOR-M2 3             
1 57166U 23091A   24038.48313053  .00000041  00000+0  37176-4 0  9996
2 57166  98.7332  94.2141 0004704 138.6267 221.5268 14.23869676 32023
TIANMU-1 07             
1 57399U 23101A   24038.55446873  .00006865  00000+0  36766-3 0  9994
2 57399  97.3836  99.4329 0003202 289.8447  70.2440 15.15320383 30636
TIANMU-1 08             
1 57400U 23101B   24038.58906413  .00007538  00000+0  40346-3 0  9998
2 57400  97.3822  99.3599 0005854 289.4524  70.6076 15.15304195 30631
TIANMU-1 09             
1 57401U 23101C   24038.57050499  .00007450  00000+0  39899-3 0  9996
2 57401  97.3780  99.2645 0006033 284.7970  75.2594 15.15283492 30631
TIANMU-1 10             
1 57402U 23101D   24038.53593567  .00006856  00000+0  36734-3 0  9995
2 57402  97.3858  99.3709 0008350 285.5650  74.4661 15.15285192 30622
FENGYUN 3F              
1 57490U 23111A   24038.57545322  .00000185  00000+0  10819-3 0  9998
2 57490  98.7861 108.8341 0001887 100.4735 259.6653 14.19763928 26739
TIANMU-1 11             
1 58645U 23205A   24038.56879906  .00006649  00000+0  36844-3 0  9999
2 58645  97.4178  67.0333 0012937 120.4718 239.7793 15.14054441  6749
TIANMU-1 12             
1 58646U 23205B   24038.57460415  .00006455  00000+0  36020-3 0  9993
2 58646  97.4164  67.0172 0011794 117.2362 243.0073 15.13828465  6737
TIANMU-1 13             
1 58647U 23205C   24038.58706347  .00006017  00000+0  34054-3 0  9991
2 58647  97.4194  67.0186 0012161 110.9556 249.2978 15.13345503  6739
TIANMU-1 14             
1 58648U 23205D   24038.57591753  .00006305  00000+0  35244-3 0  9996
2 58648  97.4119  66.9889 0012463 114.8281 245.4249 15.13768626  6732
TIANMU-1 19             
1 58660U 23208A   24038.57542038  .00008287  00000+0  46750-3 0  9990
2 58660  97.3999 154.5153 0012823  99.5572 260.7109 15.13338977  6402
TIANMU-1 20             
1 58661U 23208B   24038.64641284 -.00108390  00000+0 -60723-2 0  9995
2 58661  97.3912 154.5789 0012431 113.9169   1.8039 15.13861438  6411
TIANMU-1 21             
1 58662U 23208C   24038.15790153  .00005512  00000+0  30385-3 0  9994
2 58662  97.3963 154.1394 0011615 108.4837 251.7658 15.14331131  6348
TIANMU-1 22             
1 58663U 23208D   24038.47920513  .00008239  00000+0  44526-3 0  9996
2 58663  97.3979 154.4806 0011753 120.6164 239.6229 15.14886502  6390
TIANMU-1 15             
1 58700U 24004A   24038.56718567  .00007220  00000+0  40824-3 0  9993
2 58700  97.4577 222.2591 0011459 137.6111 222.6007 15.13322521  5003
TIANMU-1 16             
1 58701U 24004B   24038.55929774  .00007338  00000+0  40517-3 0  9996
2 58701  97.4501 222.2367 0012065 143.3809 216.8249 15.14160577  5009
TIANMU-1 17             
1 58702U 24004C   24038.55207553  .00007382  00000+0  40188-3 0  9994
2 58702  97.4544 222.2660 0011519 146.2306 213.9662 15.14669655  4995
TIANMU-1 18             
1 58703U 24004D   24038.60957927  .00007377  00000+0  39712-3 0  9993
2 58703  97.4558 222.3486 0012089 154.9402 205.2420 15.15060075  5005
